*******************************************************************************
Ephemeris / WWW_USER Wed Jun 10 10:33:28 2020 Pasadena, USA      / Horizons
*******************************************************************************
Target body name: Jupiter (599)                   {source: jup310}
Center body name: Sun (10)                        {source: DE431mx}
Center-site name: BODY CENTER
*******************************************************************************
Start time      : A.D. 2000-Jul-09 00:00:00.0000 TDB
Stop  time      : A.D. 2024-Jul-09 00:00:00.0000 TDB
Step-size       : 1440 minutes
*******************************************************************************
Center geodetic : 0.00000000,0.00000000,0.0000000 {E-lon(deg),Lat(deg),Alt(km)}
Center cylindric: 0.00000000,0.00000000,0.0000000 {E-lon(deg),Dxy(km),Dz(km)}
Center radii    : 696000.0 x 696000.0 x 696000.0 k{Equator, meridian, pole}    
Keplerian GM    : 2.9619468438424372E-04 au^3/d^2
Output units    : AU-D, deg, Julian Day Number (Tp)
Output type     : GEOMETRIC osculating elements
Output format   : 10
Reference frame : Ecliptic of J2000.0
*******************************************************************************
            JDTDB,            Calendar Date (TDB),                     EC,                     QR,                     IN,                     OM,                      W,                     Tp,                      N,                     MA,                     TA,                      A,                     AD,                     PR,
**************************************************************************************************************************************************************************************************************************************************************************************************************************************************
$$SOE
2458151.500000000, A.D. 2018-Feb-02 00:00:00.0000,  4.868072066083646E-02,  4.950060204078098E+00,  1.303765929530751E+00,  1.005109225534634E+02,  2.736014469252516E+02,  2.459966414209604E+06,  8.307780018964254E-02,  2.092209199331583E+02,  2.066361244032037E+02,  5.203363698795918E+00,  5.456667193513737E+00,  4.333287583183766E+03,
2458152.500000000, A.D. 2018-Feb-03 00:00:00.0000,  4.861444959047038E-02,  4.950729109596999E+00,  1.303781843079656E+00,  1.005097226628335E+02,  2.735775327473716E+02,  2.459966307015076E+06,  8.306964295648855E-02,  2.093276988656605E+02,  2.067375149449310E+02,  5.203704331504644E+00,  5.456679553412290E+00,  4.333713101289795E+03,
2458153.500000000, A.D. 2018-Feb-04 00:00:00.0000,  4.894090586196116E-02,  4.947689545649542E+00,  1.303500065828769E+00,  1.005308925849292E+02,  2.735516713571594E+02,  2.459965291959566E+06,  8.310341200032503E-02,  2.094339063252934E+02,  2.068184951567860E+02,  5.202294553666738E+00,  5.456899561683934E+00,  4.331952098411940E+03,
2458154.500000000, A.D. 2018-Feb-05 00:00:00.0000,  4.881114521578592E-02,  4.948806385564277E+00,  1.303674204464315E+00,  1.005178414307802E+02,  2.736122301956943E+02,  2.459966243734356E+06,  8.309228411335824E-02,  2.094580748843417E+02,  2.068472622765419E+02,  5.202759011181811E+00,  5.456711636799345E+00,  4.332532242210020E+03,
2458155.500000000, A.D. 2018-Feb-06 00:00:00.0000,  4.904853920729758E-02,  4.946320714468741E+00,  1.303634796046759E+00,  1.005207979190466E+02,  2.737445225881626E+02,  2.459967171982540E+06,  8.312379816370263E-02,  2.094069437844936E+02,  2.067882969880559E+02,  5.201443941571470E+00,  5.456567168674199E+00,  4.330889684456212E+03,
2458156.500000000, A.D. 2018-Feb-07 00:00:00.0000,  4.889552259206320E-02,  4.947946759465522E+00,  1.303636940185805E+00,  1.005206226911685E+02,  2.736456230325434E+02,  2.459966430855843E+06,  8.310288000203810E-02,  2.095895332749238E+02,  2.069636576312778E+02,  5.202316755936485E+00,  5.456686752407446E+00,  4.331979830195668E+03,
2458157.500000000, A.D. 2018-Feb-08 00:00:00.0000,  4.899216904687705E-02,  4.946568765316800E+00,  1.303853700574355E+00,  1.005045654246606E+02,  2.738998819509990E+02,  2.459969008397705E+06,  8.312493637552654E-02,  2.094184796970558E+02,  2.068017386890926E+02,  5.201396459963143E+00,  5.456224154609485E+00,  4.330830382517928E+03,
2458158.500000000, A.D. 2018-Feb-09 00:00:00.0000,  4.878689403936378E-02,  4.948989991220928E+00,  1.303731023503040E+00,  1.005136190853784E+02,  2.736379382771906E+02,  2.459966573388552E+06,  8.309083769866407E-02,  2.097656675245476E+02,  2.071309304972354E+02,  5.202819389481509E+00,  5.456648787742091E+00,  4.332607661335301E+03,
2458159.500000000, A.D. 2018-Feb-10 00:00:00.0000,  4.875298678309029E-02,  4.949240647666696E+00,  1.303788929748258E+00,  1.005093536539809E+02,  2.736747523449055E+02,  2.459967063456303E+06,  8.308896804836166E-02,  2.098114177338920E+02,  2.071746848619707E+02,  5.202897437679666E+00,  5.456554227692637E+00,  4.332705152752206E+03,
2458160.500000000, A.D. 2018-Feb-11 00:00:00.0000,  4.900895195061705E-02,  4.946949551420848E+00,  1.303506012529005E+00,  1.005301566593540E+02,  2.736074921888473E+02,  2.459965756608253E+06,  8.311313872549542E-02,  2.099594570831132E+02,  2.072974592436019E+02,  5.201888662956124E+00,  5.456827774491401E+00,  4.331445130342165E+03,
2458161.500000000, A.D. 2018-Feb-12 00:00:00.0000,  4.889200272175508E-02,  4.947817215230988E+00,  1.303744510933722E+00,  1.005126683339005E+02,  2.737344475173451E+02,  2.459967412098307E+06,  8.310660507725394E-02,  2.099167764417980E+02,  2.072642941383535E+02,  5.202161299652612E+00,  5.456505384074235E+00,  4.331785658496728E+03,
2458162.500000000, A.D. 2018-Feb-13 00:00:00.0000,  4.908608795144049E-02,  4.945821477864068E+00,  1.303686531067669E+00,  1.005169165847761E+02,  2.738229522983549E+02,  2.459967956674691E+06,  8.313146042390984E-02,  2.099097499008231E+02,  2.072478554326815E+02,  5.201124323872028E+00,  5.456427169879988E+00,  4.330490504608753E+03,
2458163.500000000, A.D. 2018-Feb-14 00:00:00.0000,  4.887166016861307E-02,  4.947995747683215E+00,  1.303752678105545E+00,  1.005120834937428E+02,  2.737403275582207E+02,  2.459967535116507E+06,  8.310477329703631E-02,  2.100760706227725E+02,  2.074116285905513E+02,  5.202237742763904E+00,  5.456479737844593E+00,  4.331881138924163E+03,
2458164.500000000, A.D. 2018-Feb-15 00:00:00.0000,  4.898128467328849E-02,  4.946549606374241E+00,  1.303921559580977E+00,  1.004998443553634E+02,  2.739621296831837E+02,  2.459969727546796E+06,  8.312684638579164E-02,  2.099371270261083E+02,  2.072783829933188E+02,  5.201316784470335E+00,  5.456083962566430E+00,  4.330730872782545E+03,
2458165.500000000, A.D. 2018-Feb-16 00:00:00.0000,  4.868086448468865E-02,  4.949918726351031E+00,  1.303846817801881E+00,  1.005052346092347E+02,  2.736750091744302E+02,  2.459967228019833E+06,  8.308134314741639E-02,  2.103100161259732E+02,  2.076364480481777E+02,  5.203215768039559E+00,  5.456512809728088E+00,  4.333102792539471E+03,
2458166.500000000, A.D. 2018-Feb-17 00:00:00.0000,  4.865564911303887E-02,  4.950131617135474E+00,  1.303873141448841E+00,  1.005033415057647E+02,  2.736874672233364E+02,  2.459967428275610E+06,  8.307928657561328E-02,  2.103801636884405E+02,  2.077022236998959E+02,  5.203301635754022E+00,  5.456471654372569E+00,  4.333210055581685E+03,
2458167.500000000, A.D. 2018-Feb-18 00:00:00.0000,  4.883691772113604E-02,  4.948742713973463E+00,  1.303529972783814E+00,  1.005280375352423E+02,  2.735186615768025E+02,  2.459965173001101E+06,  8.309051061724793E-02,  2.106304324157055E+02,  2.079226908053820E+02,  5.202833043222109E+00,  5.456923372470754E+00,  4.332624716417030E+03,
2458168.500000000, A.D. 2018-Feb-19 00:00:00.0000,  4.878500903029298E-02,  4.948957564301056E+00,  1.303742159661221E+00,  1.005128067957839E+02,  2.736636265326088E+02,  2.459966877971548E+06,  8.309190134366820E-02,  2.105693550095473E+02,  2.078692984235678E+02,  5.202774989128261E+00,  5.456592413955465E+00,  4.332552200376779E+03,
2458169.500000000, A.D. 2018-Feb-20 00:00:00.0000,  4.898761250165225E-02,  4.947007161094919E+00,  1.303604369258739E+00,  1.005226741251810E+02,  2.736868979694312E+02,  2.459966683893599E+06,  8.311448435771385E-02,  2.106279873875087E+02,  2.079125151854944E+02,  5.201832516722620E+00,  5.456657872350321E+00,  4.331375003791243E+03,
2458170.500000000, A.D. 2018-Feb-21 00:00:00.0000,  4.881226473413609E-02,  4.948744715716760E+00,  1.303685202997012E+00,  1.005168936258405E+02,  2.736398707924287E+02,  2.459966562934346E+06,  8.309369062870044E-02,  2.107585021837705E+02,  2.080416753529265E+02,  5.202700300097489E+00,  5.456655884478219E+00,  4.332458906039450E+03,
2458171.500000000, A.D. 2018-Feb-22 00:00:00.0000,  4.901146653377508E-02,  4.946463727038848E+00,  1.303774777255574E+00,  1.005105435513798E+02,  2.738545169075329E+02,  2.459968475349890E+06,  8.312505395281790E-02,  2.106263270885572E+02,  2.079097352126560E+02,  5.201391555174336E+00,  5.456319383309823E+00,  4.330824256719729E+03,
2458172.500000000, A.D. 2018-Feb-23 00:00:00.0000,  4.871387169837633E-02,  4.949710802094362E+00,  1.303763446595089E+00,  1.005113281924214E+02,  2.736200268085611E+02,  2.459966545735407E+06,  8.308225409109142E-02,  2.109466363598838E+02,  2.082198072954995E+02,  5.203177734685689E+00,  5.456644667277017E+00,  4.333055282844105E+03,
2458173.500000000, A.D. 2018-Feb-24 00:00:00.0000,  4.876085227334830E-02,  4.949162496423383E+00,  1.303782828514379E+00,  1.005099676569885E+02,  2.736753820026169E+02,  2.459967054832476E+06,  8.308990555060428E-02,  2.109736983697119E+02,  2.082421858649236E+02,  5.202858301460040E+00,  5.456554106496697E+00,  4.332656266900544E+03,
